ORBCOMM FM33            
1 25983U 99065D   24185.80084864  .00001227  00000+0  44934-3 0  9992
2 25983  45.0277 212.7863 0006227 111.2258 248.9256 14.37896421285882
ORBCOMM FM36            
1 25984U 99065E   24185.98946862  .00001755  00000+0  64925-3 0  9995
2 25984  45.0402 298.3203 0003086 312.0269  48.0316 14.35823866284925
ORBCOMM FM35            
1 25985U 99065F   24185.77026903  .00001370  00000+0  52260-3 0  9990
2 25985  45.0409 302.1930 0002364 125.1790 234.9280 14.35335932284696
ORBCOMM FM34            
1 25986U 99065G   24185.67220183  .00001379  00000+0  52577-3 0  9996
2 25986  45.0399 303.2004 0001865  25.5770 334.5169 14.35312548284797
ORBCOMM FM38            
1 33060U 08031A   24185.93019650  .00002502  00000+0  37259-3 0  9994
2 33060  48.4390 170.8975 0005983 344.2970  15.7757 14.77891898863172
ORBCOMM FM41            
1 33061U 08031B   24185.74755749  .00002360  00000+0  35537-3 0  9999
2 33061  48.4423 178.5130 0005263 330.2225 200.6055 14.77613864862649
ORBCOMM FM29            
1 33062U 08031C   24186.19818987  .00002342  00000+0  35321-3 0  9995
2 33062  48.4375 184.4140 0007118 330.3903 129.5104 14.77562437863013
ORBCOMM FM39            
1 33063U 08031D   24185.50606800  .00001879  00000+0  29613-3 0  9990
2 33063  48.4389 208.6283 0008165 303.7077  56.3058 14.76516385862211
